[{"OBJECT_NAME":"NUSAT-48 (HENRIETTA LEAVITT)","OBJECT_ID":"2024-149AG","EPOCH":"2026-03-09T19:19:17.269536","MEAN_MOTION":15.29812597,"ECCENTRICITY":0.00027538,"INCLINATION":97.3923,"RA_OF_ASC_NODE":150.8264,"ARG_OF_PERICENTER":263.3026,"MEAN_ANOMALY":96.7901,"EPHEMERIS_TYPE":0,"CLASSIFICATION_TYPE":"U","NORAD_CAT_ID":60498,"ELEMENT_SET_NO":999,"REV_AT_EPOCH":8694,"BSTAR":0.00045211745,"MEAN_MOTION_DOT":0.00012988,"MEAN_MOTION_DDOT":0},{"OBJECT_NAME":"STARLINK-35791","OBJECT_ID":"2025-283U","EPOCH":"2026-03-09T06:29:04.179264","MEAN_MOTION":15.30196711,"ECCENTRICITY":0.00011872,"INCLINATION":53.1626,"RA_OF_ASC_NODE":25.8507,"ARG_OF_PERICENTER":53.7672,"MEAN_ANOMALY":306.3438,"EPHEMERIS_TYPE":0,"CLASSIFICATION_TYPE":"U","NORAD_CAT_ID":66896,"ELEMENT_SET_NO":999,"REV_AT_EPOCH":1578,"BSTAR":0.0009036964,"MEAN_MOTION_DOT":0.00026498,"MEAN_MOTION_DDOT":0}]
